{
  "type": "FeatureCollection",
  "features": [
    {
      "type": "Feature",
      "properties": {
        "norad_id": 33376,
        "name": "GALAXY 19 (G-19)",
        "group": "intelsat",
        "lat": -0.031443315799692936,
        "lon": -155.3323521587991,
        "alt_km": 35781.09746765872,
        "timestamp": "2025-12-09T14:52:25.833657+00:00",
        "meta_object_name": "GALAXY 19 (G-19)",
        "meta_object_id": "2008-045A",
        "meta_epoch": "2025-12-09T06:01:36.395616",
        "meta_mean_motion": 1.00269833,
        "meta_eccentricity": 0.00033711,
        "meta_inclination": 0.0185,
        "meta_ra_of_asc_node": 313.5393,
        "meta_arg_of_pericenter": 318.3552,
        "meta_mean_anomaly": 159.7455,
        "meta_ephemeris_type": 0,
        "meta_classification_type": "U",
        "meta_norad_cat_id": 33376,
        "meta_element_set_no": 999,
        "meta_rev_at_epoch": 6299,
        "meta_bstar": 0,
        "meta_mean_motion_dot": -1.37e-06,
        "meta_mean_motion_ddot": 0,
        "tle_line1": "1 33376U 08045A   25343.25111569 -.00000137  00000+0  00000+0 0  9996",
        "tle_line2": "2 33376   0.0185 313.5393 0003371 318.3552 159.7455  1.00269833 62990"
      },
      "geometry": {
        "type": "Point",
        "coordinates": [
          -155.3323521587991,
          -0.031443315799692936
        ]
      }
    },
    {
      "type": "Feature",
      "properties": {
        "norad_id": 35493,
        "name": "FM-5",
        "group": "intelsat",
        "lat": -0.031043329982554917,
        "lon": -144.42054308299896,
        "alt_km": 35783.53686791572,
        "timestamp": "2025-12-09T14:52:25.833670+00:00",
        "meta_object_name": "FM-5",
        "meta_object_id": "2009-034A",
        "meta_epoch": "2025-12-08T23:27:59.811840",
        "meta_mean_motion": 1.0027183,
        "meta_eccentricity": 7.686e-05,
        "meta_inclination": 0.0205,
        "meta_ra_of_asc_node": 287.8987,
        "meta_arg_of_pericenter": 250.7085,
        "meta_mean_anomaly": 165.2291,
        "meta_ephemeris_type": 0,
        "meta_classification_type": "U",
        "meta_norad_cat_id": 35493,
        "meta_element_set_no": 999,
        "meta_rev_at_epoch": 4473,
        "meta_bstar": 0,
        "meta_mean_motion_dot": -1.98e-06,
        "meta_mean_motion_ddot": 0,
        "tle_line1": "1 35493U 09034A   25342.97777560 -.00000198  00000+0  00000+0 0  9991",
        "tle_line2": "2 35493   0.0205 287.8987 0000768 250.7085 165.2291  1.00271830 44736"
      },
      "geometry": {
        "type": "Point",
        "coordinates": [
          -144.42054308299896,
          -0.031043329982554917
        ]
      }
    },
    {
      "type": "Feature",
      "properties": {
        "norad_id": 36097,
        "name": "INTELSAT 14 (IS-14)",
        "group": "intelsat",
        "lat": -0.03014771220006027,
        "lon": -103.2868665885347,
        "alt_km": 35775.28909681122,
        "timestamp": "2025-12-09T14:52:25.833682+00:00",
        "meta_object_name": "INTELSAT 14 (IS-14)",
        "meta_object_id": "2009-064A",
        "meta_epoch": "2025-12-09T04:47:52.015776",
        "meta_mean_motion": 1.00270444,
        "meta_eccentricity": 0.00026804,
        "meta_inclination": 0.0099,
        "meta_ra_of_asc_node": 342.2991,
        "meta_arg_of_pericenter": 283.0888,
        "meta_mean_anomaly": 199.7806,
        "meta_ephemeris_type": 0,
        "meta_classification_type": "U",
        "meta_norad_cat_id": 36097,
        "meta_element_set_no": 999,
        "meta_rev_at_epoch": 5870,
        "meta_bstar": 0,
        "meta_mean_motion_dot": -2.71e-06,
        "meta_mean_motion_ddot": 0,
        "tle_line1": "1 36097U 09064A   25343.19990759 -.00000271  00000+0  00000+0 0  9999",
        "tle_line2": "2 36097   0.0099 342.2991 0002680 283.0888 199.7806  1.00270444 58700"
      },
      "geometry": {
        "type": "Point",
        "coordinates": [
          -103.2868665885347,
          -0.03014771220006027
        ]
      }
    },
    {
      "type": "Feature",
      "properties": {
        "norad_id": 36106,
        "name": "INTELSAT 15 (IS-15)",
        "group": "intelsat",
        "lat": 0.03904965826725274,
        "lon": 26.892564102872026,
        "alt_km": 35790.98368371708,
        "timestamp": "2025-12-09T14:52:25.833694+00:00",
        "meta_object_name": "INTELSAT 15 (IS-15)",
        "meta_object_id": "2009-067A",
        "meta_epoch": "2025-12-09T02:24:38.647584",
        "meta_mean_motion": 1.00273106,
        "meta_eccentricity": 0.00025715,
        "meta_inclination": 0.0293,
        "meta_ra_of_asc_node": 285.0945,
        "meta_arg_of_pericenter": 343.0358,
        "meta_mean_anomaly": 291.2788,
        "meta_ephemeris_type": 0,
        "meta_classification_type": "U",
        "meta_norad_cat_id": 36106,
        "meta_element_set_no": 999,
        "meta_rev_at_epoch": 3932,
        "meta_bstar": 0,
        "meta_mean_motion_dot": -1.83e-06,
        "meta_mean_motion_ddot": 0,
        "tle_line1": "1 36106U 09067A   25343.10044731 -.00000183  00000+0  00000+0 0  9996",
        "tle_line2": "2 36106   0.0293 285.0945 0002571 343.0358 291.2788  1.00273106 39320"
      },
      "geometry": {
        "type": "Point",
        "coordinates": [
          26.892564102872026,
          0.03904965826725274
        ]
      }
    },
    {
      "type": "Feature",
      "properties": {
        "norad_id": 36131,
        "name": "DIRECTV 12",
        "group": "intelsat",
        "lat": 0.0191941361624096,
        "lon": -161.01676072854696,
        "alt_km": 35787.81419671952,
        "timestamp": "2025-12-09T14:52:25.833707+00:00",
        "meta_object_name": "DIRECTV 12",
        "meta_object_id": "2009-075A",
        "meta_epoch": "2025-12-08T21:40:32.604096",
        "meta_mean_motion": 1.00270047,
        "meta_eccentricity": 3.55e-05,
        "meta_inclination": 0.0409,
        "meta_ra_of_asc_node": 138.4209,
        "meta_arg_of_pericenter": 206.7884,
        "meta_mean_anomaly": 315.1057,
        "meta_ephemeris_type": 0,
        "meta_classification_type": "U",
        "meta_norad_cat_id": 36131,
        "meta_element_set_no": 999,
        "meta_rev_at_epoch": 4464,
        "meta_bstar": 0,
        "meta_mean_motion_dot": -1.01e-06,
        "meta_mean_motion_ddot": 0,
        "tle_line1": "1 36131U 09075A   25342.90315514 -.00000101  00000+0  00000+0 0  9990",
        "tle_line2": "2 36131   0.0409 138.4209 0000355 206.7884 315.1057  1.00270047 44645"
      },
      "geometry": {
        "type": "Point",
        "coordinates": [
          -161.01676072854696,
          0.0191941361624096
        ]
      }
    },
    {
      "type": "Feature",
      "properties": {
        "norad_id": 36397,
        "name": "INTELSAT 16 (IS-16)",
        "group": "intelsat",
        "lat": -0.031955088920650694,
        "lon": -134.50545871654296,
        "alt_km": 35778.767961733836,
        "timestamp": "2025-12-09T14:52:25.833719+00:00",
        "meta_object_name": "INTELSAT 16 (IS-16)",
        "meta_object_id": "2010-006A",
        "meta_epoch": "2025-12-09T07:14:46.873824",
        "meta_mean_motion": 1.00270317,
        "meta_eccentricity": 0.00022938,
        "meta_inclination": 0.0155,
        "meta_ra_of_asc_node": 308.6311,
        "meta_arg_of_pericenter": 313.8295,
        "meta_mean_anomaly": 208.3293,
        "meta_ephemeris_type": 0,
        "meta_classification_type": "U",
        "meta_norad_cat_id": 36397,
        "meta_element_set_no": 999,
        "meta_rev_at_epoch": 5775,
        "meta_bstar": 0,
        "meta_mean_motion_dot": -2.42e-06,
        "meta_mean_motion_ddot": 0,
        "tle_line1": "1 36397U 10006A   25343.30193141 -.00000242  00000+0  00000+0 0  9991",
        "tle_line2": "2 36397   0.0155 308.6311 0002293 313.8295 208.3293  1.00270317 57752"
      },
      "geometry": {
        "type": "Point",
        "coordinates": [
          -134.50545871654296,
          -0.031955088920650694
        ]
      }
    },
    {
      "type": "Feature",
      "properties": {
        "norad_id": 37185,
        "name": "XM-5",
        "group": "intelsat",
        "lat": -0.06839134242179427,
        "lon": -173.4714222281293,
        "alt_km": 35780.306877027724,
        "timestamp": "2025-12-09T14:52:25.833735+00:00",
        "meta_object_name": "XM-5",
        "meta_object_id": "2010-053A",
        "meta_epoch": "2025-12-09T01:02:28.261824",
        "meta_mean_motion": 1.00269679,
        "meta_eccentricity": 0.00017498,
        "meta_inclination": 0.0636,
        "meta_ra_of_asc_node": 272.6513,
        "meta_arg_of_pericenter": 243.8809,
        "meta_mean_anomaly": 181.936,
        "meta_ephemeris_type": 0,
        "meta_classification_type": "U",
        "meta_norad_cat_id": 37185,
        "meta_element_set_no": 999,
        "meta_rev_at_epoch": 5557,
        "meta_bstar": 0,
        "meta_mean_motion_dot": -2.1e-07,
        "meta_mean_motion_ddot": 0,
        "tle_line1": "1 37185U 10053A   25343.04338266 -.00000021  00000+0  00000+0 0  9994",
        "tle_line2": "2 37185   0.0636 272.6513 0001749 243.8809 181.9360  1.00269679 55572"
      },
      "geometry": {
        "type": "Point",
        "coordinates": [
          -173.4714222281293,
          -0.06839134242179427
        ]
      }
    }
  ]
}